SatCatId,ObjectName,LaunchYear,OrbitalPeriod,LaunchMass,StatusCode,Inclination,Status,UcsData,OrbitClassEstimated,LaunchSiteCountry,Owner,UseType,Purpose,LaunchVehicleClass,TLE1,TLE2,MeanMotion,Eccentricity,OrbitClass
46064,STARLINK-1583,2020,95.59,260.0,+,53.05,Active,1,LEO,USA,USA,Commercial,Communications,Falcon,1 46064U 20055AP  23276.05725065  .00031782  00000+0  21438-2 0  9992,2 46064  53.0531 145.8445 0001245  93.7606 266.3525 15.06385523174563,15.06385523,0.0001245,LEO
46065,STARLINK-1515,2020,91.33,260.0,+,53.05,Active,1,LEO,USA,USA,Commercial,Communications,Falcon,1 46065U 20055AQ  23276.23764493  .00009106  00000+0  59611-4 0  9992,2 46065  53.0521 108.5174 0002294 111.6645 248.4619 15.76714958175129,15.76714958,0.0002294,LEO
46066,STARLINK-1525,2020,95.59,260.0,+,53.05,Active,1,LEO,USA,USA,Commercial,Communications,Falcon,1 46066U 20055AR  23276.32080023  .00023653  00000+0  16012-2 0  9992,2 46066  53.0526 124.6618 0001374  92.9601 267.1545 15.06406792174872,15.06406792,0.0001374,LEO
46067,STARLINK-1529,2020,95.59,260.0,+,53.05,Active,1,LEO,USA,USA,Commercial,Communications,Falcon,1 46067U 20055AS  23276.32354825  .00023575  00000+0  15960-2 0  9991,2 46067  53.0520 124.6390 0001307  88.1583 271.9556 15.06406090174872,15.0640609,0.0001307,LEO
46068,STARLINK-1532,2020,95.7,260.0,+,53.05,Active,1,LEO,USA,USA,Commercial,Communications,Falcon,1 46068U 20055AT  23275.89816416  .00021521  00000+0  15245-2 0  9997,2 46068  53.0522 126.8418 0001294  94.2521 265.8615 15.04766320174809,15.0476632,0.0001294,LEO
46069,STARLINK-1533,2020,95.59,260.0,+,53.05,Active,1,LEO,USA,USA,Commercial,Communications,Falcon,1 46069U 20055AU  23275.88586422  .00018320  00000+0  12458-2 0  9994,2 46069  53.0529 126.6159 0001440  95.5891 264.5262 15.06392555175356,15.06392555,0.000144,LEO
46070,STARLINK-1536,2020,95.59,260.0,+,53.05,Active,1,LEO,USA,USA,Commercial,Communications,Falcon,1 46070U 20055AV  23276.29867945  .00002703  00000+0  20027-3 0  9994,2 46070  53.0529 124.7599 0001552  98.1358 261.9807 15.06405429174873,15.06405429,0.0001552,LEO
46071,STARLINK-1538,2020,95.59,260.0,+,53.05,Active,1,LEO,USA,USA,Commercial,Communications,Falcon,1 46071U 20055AW  23275.85268717  .00003033  00000+0  22240-3 0  9994,2 46071  53.0525 126.7624 0001382  86.3950 273.7197 15.06400642175347,15.06400642,0.0001382,LEO
46072,STARLINK-1539,2020,95.59,260.0,+,53.05,Active,1,LEO,USA,USA,Commercial,Communications,Falcon,1 46072U 20055AX  23275.87754321  .00020755  00000+0  14083-2 0  9993,2 46072  53.0531 126.6511 0001282  85.2303 274.8832 15.06396865175336,15.06396865,0.0001282,LEO
46073,STARLINK-1542,2020,95.59,260.0,+,53.05,Active,1,LEO,USA,USA,Commercial,Communications,Falcon,1 46073U 20055AY  23275.89323639  .00019362  00000+0  13153-2 0  9999,2 46073  53.0522 126.5773 0001224  87.7705 272.3425 15.06395989174814,15.06395989,0.0001224,LEO
46074,STARLINK-1549,2020,95.59,260.0,+,53.05,Active,1,LEO,USA,USA,Commercial,Communications,Falcon,1 46074U 20055AZ  23275.87848904  .00017430  00000+0  11864-2 0  9996,2 46074  53.0531 126.6468 0001211  87.1219 272.9909 15.06392724175332,15.06392724,0.0001211,LEO
46075,STARLINK-1551,2020,95.59,260.0,+,53.05,Active,1,LEO,USA,USA,Commercial,Communications,Falcon,1 46075U 20055BA  23275.83794846  .00019113  00000+0  12987-2 0  9995,2 46075  53.0528 126.8292 0001650  90.2970 269.8208 15.06395815175333,15.06395815,0.000165,LEO
46076,STARLINK-1552,2020,95.59,260.0,+,53.05,Active,1,LEO,USA,USA,Commercial,Communications,Falcon,1 46076U 20055BB  23275.86374781  .00020663  00000+0  14022-2 0  9995,2 46076  53.0518 126.7143 0001275  82.9080 277.2054 15.06394547175322,15.06394547,0.0001275,LEO
46077,STARLINK-1559,2020,95.59,260.0,+,53.05,Active,1,LEO,USA,USA,Commercial,Communications,Falcon,1 46077U 20055BC  23275.97800935  .00023785  00000+0  16106-2 0  9996,2 46077  53.0526 126.2008 0001331  91.3951 268.7190 15.06392183174825,15.06392183,0.0001331,LEO
46078,STARLINK-1563,2020,95.59,260.0,+,53.06,Active,1,LEO,USA,USA,Commercial,Communications,Falcon,1 46078U 20055BD  23275.88954250  .00000621  00000+0  60554-4 0  9999,2 46078  53.0544 126.5988 0001348 101.0421 259.0720 15.06402114175318,15.06402114,0.0001348,LEO
46079,STARLINK-1566,2020,95.59,260.0,+,53.05,Active,1,LEO,USA,USA,Commercial,Communications,Falcon,1 46079U 20055BE  23275.88217985  .00019035  00000+0  12936-2 0  9995,2 46079  53.0534 126.6314 0001417  91.6511 268.4640 15.06391301175346,15.06391301,0.0001417,LEO
46080,STARLINK-1568,2020,95.59,260.0,+,53.06,Active,1,LEO,USA,USA,Commercial,Communications,Falcon,1 46080U 20055BF  23275.84068279  .00002690  00000+0  19944-3 0  9999,2 46080  53.0531 126.8069 0001427  87.7421 272.3731 15.06400408175312,15.06400408,0.0001427,LEO
46081,STARLINK-1571,2020,95.59,260.0,+,53.05,Active,1,LEO,USA,USA,Commercial,Communications,Falcon,1 46081U 20055BG  23275.87479962  .00002076  00000+0  15823-3 0  9998,2 46081  53.0522 126.6623 0001425  83.4779 276.6372 15.06400539175339,15.06400539,0.0001425,LEO
46082,STARLINK-1578,2020,95.59,260.0,+,53.05,Active,1,LEO,USA,USA,Commercial,Communications,Falcon,1 46082U 20055BH  23275.89693116  .00033297  00000+0  22441-2 0  9992,2 46082  53.0520 126.5649 0001442 104.0919 256.0231 15.06393046175341,15.06393046,0.0001442,LEO
46083,STARLINK-1579,2020,95.59,260.0,+,53.05,Active,1,LEO,USA,USA,Commercial,Communications,Falcon,1 46083U 20055BJ  23275.86743406  .00015716  00000+0  10720-2 0  9991,2 46083  53.0517 126.6970 0001385  89.2700 270.8448 15.06386258174805,15.06386258,0.0001385,LEO
46088,GLOBAL-7,2020,90.58,56.0,+,52.98,Active,1,LEO,USA,USA,Commercial,Earth Observation,Falcon,1 46088U 20055BP  23275.64983167  .00371804  62914-4  11737-2 0  9991,2 46088  52.9830  86.4587 0003160 260.2590  99.8078 15.90803548184183,15.90803548,0.000316,LEO
46089,GLOBAL-8,2020,92.55,56.0,+,52.99,Active,1,LEO,USA,USA,Commercial,Earth Observation,Falcon,1 46089U 20055BQ  23275.82976169  .00009484  00000+0  14088-3 0  9994,2 46089  52.9867 107.9362 0007817 185.0273 175.0659 15.55937076183905,15.55937076,0.0007817,LEO
46112,BSAT-4B,2020,1436.11,3520.0,+,0.06,Active,1,GSO,French Guiana,Japan,Commercial,Communications,Ariane,1 46112U 20056A   23275.61334700 -.00000359  00000+0  00000+0 0  9996,2 46112   0.0642 118.5444 0004273  48.4095 174.7667  1.00270279 11470,1.00270279,0.0004273,GEO
46114,GALAXY 30 (G-30),2020,1436.09,3298.0,+,0.02,Active,1,GSO,French Guiana,USA,Commercial,Communications,Ariane,1 46114U 20056C   23276.53851623  .00000028  00000+0  00000+0 0  9990,2 46114   0.0156 172.2320 0002492  31.8526 236.7592  1.00270437 11504,1.00270437,0.0002492,GEO
46117,STARLINK-1585,2020,95.59,260.0,+,53.05,Active,1,LEO,USA,USA,Commercial,Communications,Falcon,1 46117U 20057A   23276.16596789 -.00002546  00000+0 -15212-3 0  9996,2 46117  53.0547 325.3588 0001112  40.6463 319.4609 15.06399074173082,15.06399074,0.0001112,LEO
46118,STARLINK-1588,2020,95.59,260.0,+,53.06,Active,1,LEO,USA,USA,Commercial,Communications,Falcon,1 46118U 20057B   23276.50694519  .00009178  00000+0  63442-3 0  9999,2 46118  53.0545 343.8249 0001351  86.8739 273.2405 15.06388814172858,15.06388814,0.0001351,LEO
46119,STARLINK-1593,2020,95.59,260.0,+,53.06,Active,1,LEO,USA,USA,Commercial,Communications,Falcon,1 46119U 20057C   23276.49494723  .00009420  00000+0  65091-3 0  9995,2 46119  53.0555 343.8722 0001595 103.4162 256.7005 15.06372143172852,15.06372143,0.0001595,LEO
46120,STARLINK-1601,2020,95.59,260.0,+,53.06,Active,1,LEO,USA,USA,Commercial,Communications,Falcon,1 46120U 20057D   23276.21575350  .00003996  00000+0  28709-3 0  9990,2 46120  53.0547 345.1350 0001337  54.0695 306.0417 15.06384275172814,15.06384275,0.0001337,LEO
46121,STARLINK-1602,2020,95.59,260.0,+,53.06,Active,1,LEO,USA,USA,Commercial,Communications,Falcon,1 46121U 20057E   23276.44978977 -.00001240  00000+0 -64358-4 0  9991,2 46121  53.0540 324.0846 0001444  92.0950 268.0204 15.06394041173138,15.06394041,0.0001444,LEO
46122,STARLINK-1604,2020,95.59,260.0,+,53.05,Active,1,LEO,USA,USA,Commercial,Communications,Falcon,1 46122U 20057F   23276.12727799 -.00003385  00000+0 -20847-3 0  9997,2 46122  53.0543 305.5305 0001614  94.0451 266.0722 15.06392209173365,15.06392209,0.0001614,LEO
46123,STARLINK-1605,2020,95.59,260.0,+,53.05,Active,1,LEO,USA,USA,Commercial,Communications,Falcon,1 46123U 20057G   23276.37790995  .00014544  00000+0  99399-3 0  9998,2 46123  53.0537 304.4060 0001469  86.9115 273.2042 15.06372715173398,15.06372715,0.0001469,LEO
46124,STARLINK-1614,2020,95.59,260.0,+,53.05,Active,1,LEO,USA,USA,Commercial,Communications,Falcon,1 46124U 20057H   23276.45163619  .00024192  00000+0  16384-2 0  9997,2 46124  53.0535 304.0766 0001448  93.6139 266.5015 15.06378183173417,15.06378183,0.0001448,LEO
46125,STARLINK-1618,2020,95.59,260.0,+,53.06,Active,1,LEO,USA,USA,Commercial,Communications,Falcon,1 46125U 20057J   23276.49957474  .00012449  00000+0  85374-3 0  9990,2 46125  53.0556 343.8598 0001757  78.2127 281.9059 15.06375550172855,15.0637555,0.0001757,LEO
46126,STARLINK-1619,2020,95.59,260.0,+,53.06,Active,1,LEO,USA,USA,Commercial,Communications,Falcon,1 46126U 20057K   23276.47376299  .00000958  00000+0  83242-4 0  9994,2 46126  53.0544 343.9726 0001506  94.9216 265.1945 15.06395681172858,15.06395681,0.0001506,LEO
46127,STARLINK-1621,2020,95.59,260.0,+,53.05,Active,1,LEO,USA,USA,Commercial,Communications,Falcon,1 46127U 20057L   23276.39820790  .00001350  00000+0  10956-3 0  9994,2 46127  53.0539 324.3170 0001295 105.8367 254.2764 15.06382921173125,15.06382921,0.0001295,LEO
46128,STARLINK-1622,2020,95.59,260.0,+,53.05,Active,1,LEO,USA,USA,Commercial,Communications,Falcon,1 46128U 20057M   23276.35950086  .00000958  00000+0  83200-4 0  9999,2 46128  53.0537 304.4888 0001614  98.7885 261.3287 15.06391095173399,15.06391095,0.0001614,LEO
